[{"OBJECT_NAME":"FLOCK 4G-36","OBJECT_ID":"2025-009BU","EPOCH":"2026-03-09T16:58:27.533568","MEAN_MOTION":15.27209548,"ECCENTRICITY":0.00034736,"INCLINATION":97.4053,"RA_OF_ASC_NODE":151.0513,"ARG_OF_PERICENTER":324.2456,"MEAN_ANOMALY":35.855,"EPHEMERIS_TYPE":0,"CLASSIFICATION_TYPE":"U","NORAD_CAT_ID":62675,"ELEMENT_SET_NO":999,"REV_AT_EPOCH":6370,"BSTAR":0.00051121743,"MEAN_MOTION_DOT":0.00013573,"MEAN_MOTION_DDOT":0},{"OBJECT_NAME":"STARLINK-35600","OBJECT_ID":"2025-263AB","EPOCH":"2026-03-08T19:57:03.398112","MEAN_MOTION":15.27568302,"ECCENTRICITY":0.00013774,"INCLINATION":43.0033,"RA_OF_ASC_NODE":355.8857,"ARG_OF_PERICENTER":246.7545,"MEAN_ANOMALY":113.3161,"EPHEMERIS_TYPE":0,"CLASSIFICATION_TYPE":"U","NORAD_CAT_ID":66510,"ELEMENT_SET_NO":999,"REV_AT_EPOCH":1876,"BSTAR":0.0010326504,"MEAN_MOTION_DOT":0.00028253,"MEAN_MOTION_DDOT":0}]
